[{"OBJECT_NAME":"STARLINK-35424","OBJECT_ID":"2025-262E","EPOCH":"2026-03-09T00:10:26.626368","MEAN_MOTION":15.27567283,"ECCENTRICITY":0.00031859,"INCLINATION":43.0067,"RA_OF_ASC_NODE":299.8889,"ARG_OF_PERICENTER":257.063,"MEAN_ANOMALY":102.9866,"EPHEMERIS_TYPE":0,"CLASSIFICATION_TYPE":"U","NORAD_CAT_ID":66460,"ELEMENT_SET_NO":999,"REV_AT_EPOCH":1880,"BSTAR":0.0012565605,"MEAN_MOTION_DOT":0.00034467,"MEAN_MOTION_DDOT":0},{"OBJECT_NAME":"CZ-6A DEB","OBJECT_ID":"2024-140ADS","EPOCH":"2026-03-09T14:05:09.302208","MEAN_MOTION":15.17885306,"ECCENTRICITY":0.0073653,"INCLINATION":89.0442,"RA_OF_ASC_NODE":281.8925,"ARG_OF_PERICENTER":121.24,"MEAN_ANOMALY":239.6089,"EPHEMERIS_TYPE":0,"CLASSIFICATION_TYPE":"U","NORAD_CAT_ID":64628,"ELEMENT_SET_NO":999,"REV_AT_EPOCH":8034,"BSTAR":0.0029018,"MEAN_MOTION_DOT":0.00063537,"MEAN_MOTION_DDOT":0}]
